[{"OBJECT_NAME":"STARLINK-1281","OBJECT_ID":"2020-019L","EPOCH":"2025-11-17T09:57:05.779872","MEAN_MOTION":15.06393045,"ECCENTRICITY":0.000155,"INCLINATION":53.0554,"RA_OF_ASC_NODE":310.6426,"ARG_OF_PERICENTER":91.6274,"MEAN_ANOMALY":268.4893,"EPHEMERIS_TYPE":0,"CLASSIFICATION_TYPE":"U","NORAD_CAT_ID":45370,"ELEMENT_SET_NO":999,"REV_AT_EPOCH":31281,"BSTAR":0.00022551,"MEAN_MOTION_DOT":3.078e-5,"MEAN_MOTION_DDOT":0},{"OBJECT_NAME":"STARLINK-1300","OBJECT_ID":"2020-019Q","EPOCH":"2025-11-17T05:42:18.868896","MEAN_MOTION":15.0639579,"ECCENTRICITY":0.00011951,"INCLINATION":53.0543,"RA_OF_ASC_NODE":311.4333,"ARG_OF_PERICENTER":92.424,"MEAN_ANOMALY":267.6886,"EPHEMERIS_TYPE":0,"CLASSIFICATION_TYPE":"U","NORAD_CAT_ID":45374,"ELEMENT_SET_NO":999,"REV_AT_EPOCH":31278,"BSTAR":-4.9829161e-5,"MEAN_MOTION_DOT":-1.023e-5,"MEAN_MOTION_DDOT":0},{"OBJECT_NAME":"STARLINK-1302","OBJECT_ID":"2020-019R","EPOCH":"2025-11-17T06:03:34.234848","MEAN_MOTION":15.06410063,"ECCENTRICITY":0.00014347,"INCLINATION":53.0552,"RA_OF_ASC_NODE":311.3667,"ARG_OF_PERICENTER":95.165,"MEAN_ANOMALY":264.9502,"EPHEMERIS_TYPE":0,"CLASSIFICATION_TYPE":"U","NORAD_CAT_ID":45375,"ELEMENT_SET_NO":999,"REV_AT_EPOCH":31278,"BSTAR":0.00022588926,"MEAN_MOTION_DOT":3.086e-5,"MEAN_MOTION_DDOT":0},{"OBJECT_NAME":"STARLINK-1304","OBJECT_ID":"2020-019S","EPOCH":"2025-11-17T04:54:33.252192","MEAN_MOTION":15.06407772,"ECCENTRICITY":0.00012496,"INCLINATION":53.0544,"RA_OF_ASC_NODE":311.5824,"ARG_OF_PERICENTER":80.5814,"MEAN_ANOMALY":279.5316,"EPHEMERIS_TYPE":0,"CLASSIFICATION_TYPE":"U","NORAD_CAT_ID":45376,"ELEMENT_SET_NO":999,"REV_AT_EPOCH":31277,"BSTAR":-7.3366547e-5,"MEAN_MOTION_DOT":-1.374e-5,"MEAN_MOTION_DDOT":0},{"OBJECT_NAME":"STARLINK-1305","OBJECT_ID":"2020-019T","EPOCH":"2025-11-17T06:06:37.590336","MEAN_MOTION":15.3343197,"ECCENTRICITY":0.00043311,"INCLINATION":53.0527,"RA_OF_ASC_NODE":306.0004,"ARG_OF_PERICENTER":54.4525,"MEAN_ANOMALY":305.6879,"EPHEMERIS_TYPE":0,"CLASSIFICATION_TYPE":"U","NORAD_CAT_ID":45377,"ELEMENT_SET_NO":999,"REV_AT_EPOCH":31286,"BSTAR":0.0022900535,"MEAN_MOTION_DOT":0.00075443,"MEAN_MOTION_DDOT":0},{"OBJECT_NAME":"STARLINK-1319","OBJECT_ID":"2020-019V","EPOCH":"2025-11-17T06:57:49.010112","MEAN_MOTION":15.37975113,"ECCENTRICITY":0.00025298,"INCLINATION":53.0541,"RA_OF_ASC_NODE":307.6989,"ARG_OF_PERICENTER":75.6869,"MEAN_ANOMALY":284.4414,"EPHEMERIS_TYPE":0,"CLASSIFICATION_TYPE":"U","NORAD_CAT_ID":45379,"ELEMENT_SET_NO":999,"REV_AT_EPOCH":31284,"BSTAR":0.0029149763,"MEAN_MOTION_DOT":0.00111749,"MEAN_MOTION_DDOT":0},{"OBJECT_NAME":"STARLINK-1266","OBJECT_ID":"2020-019Z","EPOCH":"2025-11-17T05:23:45.666240","MEAN_MOTION":15.06400985,"ECCENTRICITY":0.00015066,"INCLINATION":53.0539,"RA_OF_ASC_NODE":291.49,"ARG_OF_PERICENTER":74.8048,"MEAN_ANOMALY":285.3108,"EPHEMERIS_TYPE":0,"CLASSIFICATION_TYPE":"U","NORAD_CAT_ID":45383,"ELEMENT_SET_NO":999,"REV_AT_EPOCH":31305,"BSTAR":0.0002923717,"MEAN_MOTION_DOT":4.076e-5,"MEAN_MOTION_DDOT":0},{"OBJECT_NAME":"STARLINK-1267","OBJECT_ID":"2020-019AA","EPOCH":"2025-11-17T05:02:38.190336","MEAN_MOTION":15.06407144,"ECCENTRICITY":0.00014664,"INCLINATION":53.0548,"RA_OF_ASC_NODE":292.216,"ARG_OF_PERICENTER":93.2481,"MEAN_ANOMALY":266.8676,"EPHEMERIS_TYPE":0,"CLASSIFICATION_TYPE":"U","NORAD_CAT_ID":45384,"ELEMENT_SET_NO":999,"REV_AT_EPOCH":31304,"BSTAR":-4.7421151e-5,"MEAN_MOTION_DOT":-9.88e-6,"MEAN_MOTION_DDOT":0},{"OBJECT_NAME":"STARLINK-1272","OBJECT_ID":"2020-019AC","EPOCH":"2025-11-17T11:44:22.971264","MEAN_MOTION":15.36337103,"ECCENTRICITY":0.0006438,"INCLINATION":53.0534,"RA_OF_ASC_NODE":284.7566,"ARG_OF_PERICENTER":59.3212,"MEAN_ANOMALY":300.8424,"EPHEMERIS_TYPE":0,"CLASSIFICATION_TYPE":"U","NORAD_CAT_ID":45386,"ELEMENT_SET_NO":999,"REV_AT_EPOCH":31317,"BSTAR":0.0015249,"MEAN_MOTION_DOT":0.00054864,"MEAN_MOTION_DDOT":0},{"OBJECT_NAME":"STARLINK-1274","OBJECT_ID":"2020-019AD","EPOCH":"2025-11-17T04:20:20.069376","MEAN_MOTION":15.31107447,"ECCENTRICITY":0.00045419,"INCLINATION":53.0367,"RA_OF_ASC_NODE":274.1376,"ARG_OF_PERICENTER":18.5068,"MEAN_ANOMALY":341.6096,"EPHEMERIS_TYPE":0,"CLASSIFICATION_TYPE":"U","NORAD_CAT_ID":45387,"ELEMENT_SET_NO":999,"REV_AT_EPOCH":31329,"BSTAR":0.0021336153,"MEAN_MOTION_DOT":0.00065224,"MEAN_MOTION_DDOT":0},{"OBJECT_NAME":"STARLINK-1280","OBJECT_ID":"2020-019AE","EPOCH":"2025-11-17T05:47:37.951008","MEAN_MOTION":15.42115924,"ECCENTRICITY":0.00062205,"INCLINATION":53.0542,"RA_OF_ASC_NODE":304.7388,"ARG_OF_PERICENTER":46.1373,"MEAN_ANOMALY":314.0144,"EPHEMERIS_TYPE":0,"CLASSIFICATION_TYPE":"U","NORAD_CAT_ID":45388,"ELEMENT_SET_NO":999,"REV_AT_EPOCH":31286,"BSTAR":0.0014566102,"MEAN_MOTION_DOT":0.00063445,"MEAN_MOTION_DDOT":0},{"OBJECT_NAME":"STARLINK-1283","OBJECT_ID":"2020-019AF","EPOCH":"2025-11-17T04:09:04.422240","MEAN_MOTION":15.3258459,"ECCENTRICITY":0.0007839,"INCLINATION":53.0548,"RA_OF_ASC_NODE":285.2572,"ARG_OF_PERICENTER":60.1131,"MEAN_ANOMALY":300.0648,"EPHEMERIS_TYPE":0,"CLASSIFICATION_TYPE":"U","NORAD_CAT_ID":45389,"ELEMENT_SET_NO":999,"REV_AT_EPOCH":31314,"BSTAR":0.0020553754,"MEAN_MOTION_DOT":0.0006584,"MEAN_MOTION_DDOT":0},{"OBJECT_NAME":"STARLINK-1284","OBJECT_ID":"2020-019AG","EPOCH":"2025-11-17T05:29:03.877440","MEAN_MOTION":15.06398692,"ECCENTRICITY":0.00013692,"INCLINATION":53.055,"RA_OF_ASC_NODE":291.4801,"ARG_OF_PERICENTER":82.2446,"MEAN_ANOMALY":277.8698,"EPHEMERIS_TYPE":0,"CLASSIFICATION_TYPE":"U","NORAD_CAT_ID":45390,"ELEMENT_SET_NO":999,"REV_AT_EPOCH":31305,"BSTAR":0.00015555934,"MEAN_MOTION_DOT":2.036e-5,"MEAN_MOTION_DDOT":0},{"OBJECT_NAME":"STARLINK-1292","OBJECT_ID":"2020-019AL","EPOCH":"2025-11-17T10:43:00.769152","MEAN_MOTION":16.27561655,"ECCENTRICITY":0.0002713,"INCLINATION":53.034,"RA_OF_ASC_NODE":228.3225,"ARG_OF_PERICENTER":195.83,"MEAN_ANOMALY":164.2657,"EPHEMERIS_TYPE":0,"CLASSIFICATION_TYPE":"U","NORAD_CAT_ID":45394,"ELEMENT_SET_NO":999,"REV_AT_EPOCH":31369,"BSTAR":0.00078125,"MEAN_MOTION_DOT":0.02915881,"MEAN_MOTION_DDOT":1.2009e-5},{"OBJECT_NAME":"STARLINK-1297","OBJECT_ID":"2020-019AM","EPOCH":"2025-11-17T04:46:36.344064","MEAN_MOTION":15.06401833,"ECCENTRICITY":0.0001654,"INCLINATION":53.0549,"RA_OF_ASC_NODE":291.6085,"ARG_OF_PERICENTER":94.4406,"MEAN_ANOMALY":265.6772,"EPHEMERIS_TYPE":0,"CLASSIFICATION_TYPE":"U","NORAD_CAT_ID":45395,"ELEMENT_SET_NO":999,"REV_AT_EPOCH":31223,"BSTAR":0.00021979125,"MEAN_MOTION_DOT":2.994e-5,"MEAN_MOTION_DDOT":0},{"OBJECT_NAME":"STARLINK-1307","OBJECT_ID":"2020-019AP","EPOCH":"2025-11-17T04:36:00.307008","MEAN_MOTION":15.06401068,"ECCENTRICITY":0.00015846,"INCLINATION":53.0549,"RA_OF_ASC_NODE":291.6406,"ARG_OF_PERICENTER":89.5274,"MEAN_ANOMALY":270.5896,"EPHEMERIS_TYPE":0,"CLASSIFICATION_TYPE":"U","NORAD_CAT_ID":45397,"ELEMENT_SET_NO":999,"REV_AT_EPOCH":31287,"BSTAR":0.00031495077,"MEAN_MOTION_DOT":4.413e-5,"MEAN_MOTION_DDOT":0}]
