STARLINK-1281           
1 45370U 20019L   25321.41465023  .00003078  00000+0  22551-3 0  9994
2 45370  53.0554 310.6426 0001550  91.6274 268.4893 15.06393045312816
STARLINK-1300           
1 45374U 20019Q   25321.23771839 -.00001023  00000+0 -49829-4 0  9991
2 45374  53.0543 311.4333 0001195  92.4240 267.6886 15.06395790312789
STARLINK-1302           
1 45375U 20019R   25321.25247957  .00003086  00000+0  22589-3 0  9995
2 45375  53.0552 311.3667 0001434  95.1650 264.9502 15.06410063312786
STARLINK-1304           
1 45376U 20019S   25321.20455153 -.00001374  00000+0 -73367-4 0  9991
2 45376  53.0544 311.5824 0001249  80.5814 279.5316 15.06407772312776
STARLINK-1305           
1 45377U 20019T   25321.25460174  .00075443  00000+0  22901-2 0  9998
2 45377  53.0527 306.0004 0004331  54.4525 305.6879 15.33431970312863
STARLINK-1319           
1 45379U 20019V   25321.29015058  .00111749  00000+0  29150-2 0  9994
2 45379  53.0541 307.6989 0002529  75.6869 284.4414 15.37975113312846
STARLINK-1266           
1 45383U 20019Z   25321.22483410  .00004076  00000+0  29237-3 0  9994
2 45383  53.0539 291.4900 0001506  74.8048 285.3108 15.06400985313055
STARLINK-1267           
1 45384U 20019AA  25321.21016424 -.00000988  00000+0 -47421-4 0  9997
2 45384  53.0548 292.2160 0001466  93.2481 266.8676 15.06407144313041
STARLINK-1272           
1 45386U 20019AC  25321.48915476  .00054864  00000+0  15249-2 0  9994
2 45386  53.0534 284.7566 0006438  59.3212 300.8424 15.36337103313177
STARLINK-1274           
1 45387U 20019AD  25321.18078784  .00065224  00000+0  21336-2 0  9990
2 45387  53.0367 274.1376 0004541  18.5068 341.6096 15.31107447313295
STARLINK-1280           
1 45388U 20019AE  25321.24141147  .00063445  00000+0  14566-2 0  9992
2 45388  53.0542 304.7388 0006220  46.1373 314.0144 15.42115924312867
STARLINK-1283           
1 45389U 20019AF  25321.17296785  .00065840  00000+0  20554-2 0  9999
2 45389  53.0548 285.2572 0007839  60.1131 300.0648 15.32584590313141
STARLINK-1284           
1 45390U 20019AG  25321.22851710  .00002036  00000+0  15556-3 0  9997
2 45390  53.0550 291.4801 0001369  82.2446 277.8698 15.06398692313059
STARLINK-1292           
1 45394U 20019AL  25321.44653668  .02915881  12009-4  78125-3 0  9998
2 45394  53.0340 228.3225 0002713 195.8300 164.2657 16.27561655313692
STARLINK-1297           
1 45395U 20019AM  25321.19903176  .00002994  00000+0  21979-3 0  9991
2 45395  53.0549 291.6085 0001654  94.4406 265.6772 15.06401833312235
STARLINK-1307           
1 45397U 20019AP  25321.19167022  .00004413  00000+0  31495-3 0  9997
2 45397  53.0549 291.6406 0001584  89.5274 270.5896 15.06401068312876
